{"fetched_at":"2026-03-29T16:36:15Z","count":15609,"tles":[{"name":"STARLINK-32671","line1":"1 62209U 24229T   26087.56875441  .00038020  00000+0  13832-2 0  9992","line2":"2 62209  42.9998 164.5211 0001381 281.3786  78.6911 15.27598999 73444","category":"Starlink"}]}